[{"OBJECT_NAME":"TIANYI C","OBJECT_ID":"2025-103C","EPOCH":"2026-03-09T22:37:19.466688","MEAN_MOTION":15.19353753,"ECCENTRICITY":0.00043402,"INCLINATION":97.3825,"RA_OF_ASC_NODE":142.8102,"ARG_OF_PERICENTER":135.1968,"MEAN_ANOMALY":224.9618,"EPHEMERIS_TYPE":0,"CLASSIFICATION_TYPE":"U","NORAD_CAT_ID":64050,"ELEMENT_SET_NO":999,"REV_AT_EPOCH":4499,"BSTAR":0.00019408106,"MEAN_MOTION_DOT":4.036e-5,"MEAN_MOTION_DDOT":0},{"OBJECT_NAME":"SITRO-AIS-58","OBJECT_ID":"2025-313L","EPOCH":"2026-03-09T21:15:14.278752","MEAN_MOTION":15.21328621,"ECCENTRICITY":0.00155462,"INCLINATION":97.3997,"RA_OF_ASC_NODE":145.1005,"ARG_OF_PERICENTER":357.6289,"MEAN_ANOMALY":2.487,"EPHEMERIS_TYPE":0,"CLASSIFICATION_TYPE":"U","NORAD_CAT_ID":67258,"ELEMENT_SET_NO":999,"REV_AT_EPOCH":1084,"BSTAR":0.00053688387,"MEAN_MOTION_DOT":0.00011999,"MEAN_MOTION_DDOT":0}]
